UNKNOWN                 
1 81052U          25165.28573553  .00009102  00000+0  26145-2 0  9994
2 81052  65.7719 126.4916 0562047  35.8672 327.8794 13.80127011575255
UNKNOWN                 
1 81069U          25164.43069512  .00005845  00000+0  79137-2 0  9992
2 81069 100.3814  54.7909 0060358 130.2448 230.3990 13.59107421491150
UNKNOWN                 
1 81078U          25166.50416422  .00000118  00000+0  47396-2 0  9998
2 81078  65.1102 184.4013 0177240  43.0875 110.8839 11.22389642474395
UNKNOWN                 
1 81111U          25166.12539642  .00021398  00000+0  39067-2 0  9993
2 81111  62.8635 187.8703 3914866 350.0450   4.0512  7.47646489258363
UNKNOWN                 
1 81123U 70025    25165.38594706  .00000970  00000+0  96252-3 0  9992
2 81123  99.9796 236.8496 0004570 151.9625 208.1772 13.81122054581243
UNKNOWN                 
1 81134U          25164.00053529  .00000267  00000+0  95146-3 0  9991
2 81134  90.2470 359.8784 0027225 145.7903 214.4976 12.92916359438995
UNKNOWN                 
1 81161U          25165.26084320  .00001397  00000+0  14947-2 0  9997
2 81161 100.4275 350.6147 0059677  27.3084 333.1178 13.75138893531184
UNKNOWN                 
1 81219U 81053    25166.24193276  .00000452  00000+0  40916-3 0  9995
2 81219  82.9254 141.6980 0022303   9.3048 350.8520 13.81580885582595
UNKNOWN                 
1 81228U          25158.20013494  .00002321  00000+0  75957-3 0  9998
2 81228  70.5252 338.7703 0066318 284.2244  75.1528 14.38360880598961
UNKNOWN                 
1 81254U 70025    25164.53025644  .00003983  00000+0  26753-2 0  9998
2 81254 100.4078 201.8514 0072953 190.5141 169.4496 14.00117137587385
UNKNOWN                 
1 81279U          25166.48481965  .00001318  00000+0  51992-3 0  9993
2 81279  98.1477 240.2404 0208786 192.4560 167.1412 14.19395948437020
UNKNOWN                 
1 81301U          25166.33744619  .00000103  00000+0  17528-3 0  9999
2 81301  66.7594   6.7060 0091055 347.2263 186.0382 13.76582850581522
UNKNOWN                 
1 81311U 90105    25165.08974263  .00000535  00000+0  11973-3 0  9993
2 81311  98.7551 213.5375 0131246 319.7398  68.1642 14.56207295613158
UNKNOWN                 
1 81317U 80089    25166.43001375  .00000165  00000+0  38315-3 0  9992
2 81317  67.1358 213.5865 0209529 162.9668 211.0376 13.37918356564514
UNKNOWN                 
1 81323U          25165.71801228  .00011011  00000+0  16637-2 0  9993
2 81323  65.7527 172.4562 0351789  49.8477 313.2871 14.40459430 86935
UNKNOWN                 
1 81329U          25158.19278050  .00001526  00000+0  59301-3 0  9990
2 81329  65.8211 200.9360 0829963 116.2732 252.5980 13.21243703553164
UNKNOWN                 
1 81341U          25163.36939654  .00009947  00000+0  25364-1 0  9998
2 81341  99.5287 129.8957 0375086 206.9143 151.2060 12.96160660499659
UNKNOWN                 
1 81343U          25165.32474460  .00005951  00000+0  46153-3 0  9999
2 81343  85.8731 296.1063 0008973 183.0389 177.0790 15.01176797427085
UNKNOWN                 
1 81359U          25164.30119297  .00000898  00000+0  92083-3 0  9995
2 81359  66.7980 128.4802 0105506  89.2736 272.0424 13.78490844580339
UNKNOWN                 
1 81366U          25158.71565402  .00000575  00000+0  22774-3 0  9996
2 81366  65.8801 156.7203 0720893 173.0959 188.0710 13.44579421 40673
UNKNOWN                 
1 81371U          25166.17524147  .00002868  00000+0  48421-3 0  9996
2 81371  98.8181 248.3658 0072176 205.3175 154.4484 14.68628746615328
UNKNOWN                 
1 81386U          25162.37735828  .00003426  00000+0  11846-2 0  9991
2 81386  71.0498  35.6134 0093909  18.1812 342.2640 14.33957719597797
UNKNOWN                 
1 81390U          25166.36169347  .00000431  00000+0  36112-2 0  9992
2 81390 103.1124  43.0226 0176537  98.0581 264.0545 12.35667780477810
UNKNOWN                 
1 81392U          25164.18127377  .00005322  00000+0  51079-2 0  9992
2 81392 100.3963 134.3515 0041573 132.3373 247.0575 13.80345310576984
UNKNOWN                 
1 81405U          25163.88595458  .00000967  00000+0  76645-3 0  9999
2 81405  99.4802 209.0935 0158920 353.1137   6.7836 13.88238117536420
UNKNOWN                 
1 81406U          25158.44013423  .00000316  00000+0  16710-3 0  9998
2 81406  65.8075 218.0995 0858227  43.3524 323.1848 13.11168760508982
UNKNOWN                 
1 81427U          25165.62824457  .00000798  00000+0  49125-3 0  9996
2 81427  98.7709  53.4739 0084145 187.1433 172.8543 14.06565310526301
UNKNOWN                 
1 81438U          25165.87077407  .00002458  00000+0  36923-2 0  9996
2 81438 100.2955  30.1630 0047362 150.7266 209.6537 13.53631241567469
UNKNOWN                 
1 81439U          25166.19516134  .00000101  00000+0  42163-3 0  9995
2 81439  67.1587 130.9426 0608690 313.9223  41.3048 12.62511982239100
UNKNOWN                 
1 81449U 85042    25165.37325551  .00026554  00000+0  32922-2 0  9996
2 81449  66.7973 150.6652 0040666 278.1868  81.4645 14.82007778606568
UNKNOWN                 
1 81478U          25164.51041321  .00004219  00000+0  15731-2 0  9997
2 81478  98.9559  72.0682 0148640 165.3282  14.0107 14.26557606596948
UNKNOWN                 
1 81488U 75052    25166.43390705  .00000376  00000+0  59631-3 0  9991
2 81488 100.0275  36.2094 0046231  86.5815  92.6609 13.56370399572180
UNKNOWN                 
1 81497U          25166.40827225  .00003906  00000+0  36356-2 0  9991
2 81497 100.3115  44.1183 0028910 115.9604  62.2702 13.82557876191360
UNKNOWN                 
1 81499U          25165.49444905  .00002034  00000+0  57930-3 0  9994
2 81499  74.0482 199.1822 0003317 316.5646  43.5251 14.45918260456213
UNKNOWN                 
1 81535U          25166.09084916  .00000641  00000+0  28261-3 0  9991
2 81535  98.2063 263.0998 0235396 311.3258  46.7869 14.12872088361887
UNKNOWN                 
1 81536U 73086    25166.07389060  .00000417  00000+0  28304-2 0  9990
2 81536 101.9745  25.0426 0017897 291.3176 227.1844 12.55631599529136
UNKNOWN                 
1 81537U 93016    25165.60400814  .00000082  00000+0  74922-4 0  9992
2 81537  71.0382 123.9423 0075603  64.7795 296.1136 14.06950928594987
UNKNOWN                 
1 81552U          25166.33462046  .00000839  00000+0  18729-2 0  9997
2 81552  99.0547 118.0057 0264141  89.4924 273.6453 13.17756503555488
UNKNOWN                 
1 81599U          25165.15005877  .00000615  00000+0  11853-2 0  9995
2 81599  67.2962 313.7099 0256274 216.5965 324.1981 13.31240532560900
UNKNOWN                 
1 81605U          25165.55351450  .00002373  00000+0  10255-1 0  9995
2 81605  56.4334   6.6087 0147551 248.9113 109.5983 12.80860410162986
UNKNOWN                 
1 81614U 76077    25166.43912685  .00003838  00000+0  22436-1 0  9994
2 81614 101.8037 168.1300 0433778 115.9433 248.6989 12.35199464515707
UNKNOWN                 
1 81615U 92021    25166.57964552  .00000911  00000+0  33156-3 0  9999
2 81615  65.8263 121.6641 0789269 219.9292 134.1089 13.33000470558846
UNKNOWN                 
1 81617U 73086    25163.24160025  .00000332  00000+0  22301-2 0  9991
2 81617 101.2561 345.7537 0034403 237.8141 121.9597 12.57378693530042
UNKNOWN                 
1 81624U          25165.65910055  .00004430  00000+0  75576-3 0  9994
2 81624  66.9805 305.9878 0067984  19.3896 340.9786 14.68406818613101
UNKNOWN                 
1 81640U          25163.56564805  .00000042  00000+0  91685-4 0  9993
2 81640  65.8224 146.2477 0981782 152.6809 212.9554 12.57048857487054
UNKNOWN                 
1 81652U 76077    25166.55459370  .00000426  00000+0  55698-3 0  9994
2 81652 102.1690  17.5909 0369339  42.4660 343.0403 13.44099680554442
UNKNOWN                 
1 81667U          25164.31353380  .00003988  00000+0  11051-2 0  9999
2 81667  74.0421  17.5480 0014524 359.4511   0.6629 14.46860149430257
UNKNOWN                 
1 81674U          25158.63679058  .00000792  00000+0  49703-3 0  9994
2 81674  66.8218 117.6940 0029703 342.5679 196.6948 14.09415036587202
UNKNOWN                 
1 81683U          25165.31067014  .00003839  00000+0  86924-3 0  9991
2 81683  81.2168 126.4169 0026500 127.2502 233.1117 14.55788597609456
UNKNOWN                 
1 81693U 73086    25166.49356955 -.00000715  00000+0 -48303-2 0  9991
2 81693 101.0758 247.8813 0380158  66.0223 298.0154 12.25652449945689
UNKNOWN                 
1 81745U          25166.41394455  .00002004  00000+0  66200-3 0  9992
2 81745  71.0015  61.8032 0005691 149.8145 210.3319 14.39225735603799
UNKNOWN                 
1 81749U          25165.61607109  .00000175  00000+0  72990-3 0  9990
2 81749  99.7073 221.2244 0369089 246.2872 275.7854 12.77528083538871
UNKNOWN                 
1 81775U          25165.55697171  .00005241  00000+0  17181-2 0  9999
2 81775  82.9198  14.0609 0020633  85.9477 274.4073 14.38148722599214
UNKNOWN                 
1 81779U          25153.30256867  .00002753  00000+0  16731+0 0  9998
2 81779  54.5565 134.9957 1524214 250.9769  92.0154  9.31896016462296
UNKNOWN                 
1 81792U          25165.93933971  .00002685  00000+0  99819-3 0  9999
2 81792  65.8225 141.7944 0892567   2.2514 358.2139 13.10140598 56349
UNKNOWN                 
1 81812U          25166.40889433  .00003614  00000+0  26012-1 0  9994
2 81812 103.7410  55.2005 0246962 173.3087 187.1362 12.36109861518260
UNKNOWN                 
1 81816U 77121    25166.02566996  .00000431  00000+0  37147-3 0  9997
2 81816  66.2393  26.4166 0179449 348.3850  11.3107 13.88868009584242
UNKNOWN                 
1 81819U          25160.20609570  .00000272  00000+0  21605-2 0  9996
2 81819 102.1730 254.8345 0037917 109.4620 251.0549 12.47384020524753
UNKNOWN                 
1 81824U          25165.24283351  .00005383  00000+0  19775-2 0  9999
2 81824  65.8438 111.8001 0026194  70.6421 289.7500 14.33264852598565
